[{"OBJECT_NAME":"RROCI-2","OBJECT_ID":"2024-043J","EPOCH":"2026-03-09T21:40:56.693280","MEAN_MOTION":14.99383357,"ECCENTRICITY":0.00054118,"INCLINATION":97.8279,"RA_OF_ASC_NODE":200.9973,"ARG_OF_PERICENTER":337.3784,"MEAN_ANOMALY":22.7199,"EPHEMERIS_TYPE":0,"CLASSIFICATION_TYPE":"U","NORAD_CAT_ID":59106,"ELEMENT_SET_NO":999,"REV_AT_EPOCH":10988,"BSTAR":0.00035067832,"MEAN_MOTION_DOT":4.232e-5,"MEAN_MOTION_DDOT":0},{"OBJECT_NAME":"STARLINK-34484","OBJECT_ID":"2025-126Y","EPOCH":"2026-03-09T22:40:13.039968","MEAN_MOTION":14.98340581,"ECCENTRICITY":0.00022443,"INCLINATION":70.0047,"RA_OF_ASC_NODE":33.6675,"ARG_OF_PERICENTER":243.5816,"MEAN_ANOMALY":116.5113,"EPHEMERIS_TYPE":0,"CLASSIFICATION_TYPE":"U","NORAD_CAT_ID":64366,"ELEMENT_SET_NO":999,"REV_AT_EPOCH":4193,"BSTAR":0.00057375299,"MEAN_MOTION_DOT":6.761e-5,"MEAN_MOTION_DDOT":0}]
